STARLINK-31400          
1 59405U 24064H   26067.99739477 -.00000949  00000+0 -24987-4 0  9992
2 59405  43.0014  59.7640 0000524 250.3044 109.7751 15.27574271109121
REAL                    
1 64875U 25154G   26068.72233414  .00022901  00000+0  82904-3 0  9994
2 64875  97.4133 137.2581 0001853 118.5876 241.5550 15.28408058 34830
